41180,ORBCOMM FM119,2015,98.85,-1.0,-,47.0,Inactive,0,LEO,USA,ORBCOMM,Unknown,Unknown,Unknown,1 41180U 15081B   24195.76978040  .00001389  00000+0  34484-3 0  9997,2 41180  47.0024 352.9134 0001952 279.9387  80.1278 14.56740135456357,14.56740135,0.0001952,LEO
41181,ORBCOMM FM105,2015,99.69,-1.0,-,47.0,Inactive,0,LEO,USA,ORBCOMM,Unknown,Unknown,Unknown,1 41181U 15081C   24196.08233242  .00000651  00000+0  23209-3 0  9996,2 41181  47.0033 324.2850 0002560 248.0223 112.0385 14.44474818451962,14.44474818,0.000256,LEO
40091,ORBCOMM FM103,2014,98.85,172.0,+,47.0,Active,1,LEO,USA,ORBCOMM,Commercial,Communications,Falcon,1 40091U 14040F   24196.24547530  .00001253  00000+0  31477-3 0  9990,2 40091  47.0043 172.2210 0001492 194.9050 165.1791 14.56754597531869,14.56754597,0.0001492,LEO
41179,ORBCOMM FM114,2015,98.84,172.0,+,47.0,Active,1,LEO,USA,ORBCOMM,Commercial,Communications,Falcon,1 41179U 15081A   24195.86470203  .00001965  00000+0  47147-3 0  9994,2 41179  47.0034  83.2491 0001706 240.0273 120.0443 14.56843193455115,14.56843193,0.0001706,LEO
41182,ORBCOMM FM110,2015,98.85,172.0,+,47.0,Active,1,LEO,USA,ORBCOMM,Commercial,Communications,Falcon,1 41182U 15081D   24195.84247672  .00002033  00000+0  48668-3 0  9994,2 41182  47.0024  82.7624 0001546  43.5925 316.5082 14.56808867454986,14.56808867,0.0001546,LEO
41183,ORBCOMM FM118,2015,98.85,172.0,+,47.0,Active,1,LEO,USA,ORBCOMM,Commercial,Communications,Falcon,1 41183U 15081E   24195.95737822  .00001707  00000+0  41462-3 0  9990,2 41183  47.0048  82.5444 0001765  40.7535 319.3482 14.56816968455101,14.56816968,0.0001765,LEO
41184,ORBCOMM FM112,2015,98.85,172.0,+,47.0,Active,1,LEO,USA,ORBCOMM,Commercial,Communications,Falcon,1 41184U 15081F   24195.81517523  .00001760  00000+0  42712-3 0  9998,2 41184  47.0007 351.9019 0002267 261.2510  98.8118 14.56728716456300,14.56728716,0.0002267,LEO
41185,ORBCOMM FM113,2015,98.85,172.0,+,47.0,Active,1,LEO,USA,ORBCOMM,Commercial,Communications,Falcon,1 41185U 15081G   24196.13538975  .00001707  00000+0  41552-3 0  9991,2 41185  47.0027 350.6709 0001886 272.5221  87.5448 14.56728585456401,14.56728585,0.0001886,LEO
