<?xml version="1.0" encoding="UTF-8"?>
<ndm xmlns:xsi="http://www.w3.org/2001/XMLSchema-instance" xsi:noNamespaceSchemaLocation="https://sanaregistry.org/r/ndmxml_unqualified/ndmxml-2.0.0-master-2.0.xsd">
<omm id="CCSDS_OMM_VERS" version="2.0">
<header><CREATION_DATE/><ORIGINATOR/></header><body><segment><metadata><OBJECT_NAME>ORBCOMM FM103</OBJECT_NAME><OBJECT_ID>2014-040F</OBJECT_ID><CENTER_NAME>EARTH</CENTER_NAME><REF_FRAME>TEME</REF_FRAME><TIME_SYSTEM>UTC</TIME_SYSTEM><MEAN_ELEMENT_THEORY>SGP4</MEAN_ELEMENT_THEORY></metadata><data><meanElements><EPOCH>2024-07-14T05:53:29.065920</EPOCH><MEAN_MOTION>14.56754597</MEAN_MOTION><ECCENTRICITY>.0001492</ECCENTRICITY><INCLINATION>47.0043</INCLINATION><RA_OF_ASC_NODE>172.2210</RA_OF_ASC_NODE><ARG_OF_PERICENTER>194.9050</ARG_OF_PERICENTER><MEAN_ANOMALY>165.1791</MEAN_ANOMALY></meanElements><tleParameters><EPHEMERIS_TYPE>0</EPHEMERIS_TYPE><CLASSIFICATION_TYPE>U</CLASSIFICATION_TYPE><NORAD_CAT_ID>40091</NORAD_CAT_ID><ELEMENT_SET_NO>999</ELEMENT_SET_NO><REV_AT_EPOCH>53186</REV_AT_EPOCH><BSTAR>.31477E-3</BSTAR><MEAN_MOTION_DOT>.1253E-4</MEAN_MOTION_DOT><MEAN_MOTION_DDOT>0</MEAN_MOTION_DDOT></tleParameters></data></segment></body></omm>
<omm id="CCSDS_OMM_VERS" version="2.0">
<header><CREATION_DATE/><ORIGINATOR/></header><body><segment><metadata><OBJECT_NAME>ORBCOMM FM114</OBJECT_NAME><OBJECT_ID>2015-081A</OBJECT_ID><CENTER_NAME>EARTH</CENTER_NAME><REF_FRAME>TEME</REF_FRAME><TIME_SYSTEM>UTC</TIME_SYSTEM><MEAN_ELEMENT_THEORY>SGP4</MEAN_ELEMENT_THEORY></metadata><data><meanElements><EPOCH>2024-07-13T20:45:10.255392</EPOCH><MEAN_MOTION>14.56843193</MEAN_MOTION><ECCENTRICITY>.0001706</ECCENTRICITY><INCLINATION>47.0034</INCLINATION><RA_OF_ASC_NODE>83.2491</RA_OF_ASC_NODE><ARG_OF_PERICENTER>240.0273</ARG_OF_PERICENTER><MEAN_ANOMALY>120.0443</MEAN_ANOMALY></meanElements><tleParameters><EPHEMERIS_TYPE>0</EPHEMERIS_TYPE><CLASSIFICATION_TYPE>U</CLASSIFICATION_TYPE><NORAD_CAT_ID>41179</NORAD_CAT_ID><ELEMENT_SET_NO>999</ELEMENT_SET_NO><REV_AT_EPOCH>45511</REV_AT_EPOCH><BSTAR>.47147E-3</BSTAR><MEAN_MOTION_DOT>.1965E-4</MEAN_MOTION_DOT><MEAN_MOTION_DDOT>0</MEAN_MOTION_DDOT></tleParameters></data></segment></body></omm>
<omm id="CCSDS_OMM_VERS" version="2.0">
<header><CREATION_DATE/><ORIGINATOR/></header><body><segment><metadata><OBJECT_NAME>ORBCOMM FM119</OBJECT_NAME><OBJECT_ID>2015-081B</OBJECT_ID><CENTER_NAME>EARTH</CENTER_NAME><REF_FRAME>TEME</REF_FRAME><TIME_SYSTEM>UTC</TIME_SYSTEM><MEAN_ELEMENT_THEORY>SGP4</MEAN_ELEMENT_THEORY></metadata><data><meanElements><EPOCH>2024-07-13T18:28:29.026560</EPOCH><MEAN_MOTION>14.56740135</MEAN_MOTION><ECCENTRICITY>.0001952</ECCENTRICITY><INCLINATION>47.0024</INCLINATION><RA_OF_ASC_NODE>352.9134</RA_OF_ASC_NODE><ARG_OF_PERICENTER>279.9387</ARG_OF_PERICENTER><MEAN_ANOMALY>80.1278</MEAN_ANOMALY></meanElements><tleParameters><EPHEMERIS_TYPE>0</EPHEMERIS_TYPE><CLASSIFICATION_TYPE>U</CLASSIFICATION_TYPE><NORAD_CAT_ID>41180</NORAD_CAT_ID><ELEMENT_SET_NO>999</ELEMENT_SET_NO><REV_AT_EPOCH>45635</REV_AT_EPOCH><BSTAR>.34484E-3</BSTAR><MEAN_MOTION_DOT>.1389E-4</MEAN_MOTION_DOT><MEAN_MOTION_DDOT>0</MEAN_MOTION_DDOT></tleParameters></data></segment></body></omm>
<omm id="CCSDS_OMM_VERS" version="2.0">
<header><CREATION_DATE/><ORIGINATOR/></header><body><segment><metadata><OBJECT_NAME>ORBCOMM FM105</OBJECT_NAME><OBJECT_ID>2015-081C</OBJECT_ID><CENTER_NAME>EARTH</CENTER_NAME><REF_FRAME>TEME</REF_FRAME><TIME_SYSTEM>UTC</TIME_SYSTEM><MEAN_ELEMENT_THEORY>SGP4</MEAN_ELEMENT_THEORY></metadata><data><meanElements><EPOCH>2024-07-14T01:58:33.521088</EPOCH><MEAN_MOTION>14.44474818</MEAN_MOTION><ECCENTRICITY>.000256</ECCENTRICITY><INCLINATION>47.0033</INCLINATION><RA_OF_ASC_NODE>324.2850</RA_OF_ASC_NODE><ARG_OF_PERICENTER>248.0223</ARG_OF_PERICENTER><MEAN_ANOMALY>112.0385</MEAN_ANOMALY></meanElements><tleParameters><EPHEMERIS_TYPE>0</EPHEMERIS_TYPE><CLASSIFICATION_TYPE>U</CLASSIFICATION_TYPE><NORAD_CAT_ID>41181</NORAD_CAT_ID><ELEMENT_SET_NO>999</ELEMENT_SET_NO><REV_AT_EPOCH>45196</REV_AT_EPOCH><BSTAR>.23209E-3</BSTAR><MEAN_MOTION_DOT>.651E-5</MEAN_MOTION_DOT><MEAN_MOTION_DDOT>0</MEAN_MOTION_DDOT></tleParameters></data></segment></body></omm>
<omm id="CCSDS_OMM_VERS" version="2.0">
<header><CREATION_DATE/><ORIGINATOR/></header><body><segment><metadata><OBJECT_NAME>ORBCOMM FM110</OBJECT_NAME><OBJECT_ID>2015-081D</OBJECT_ID><CENTER_NAME>EARTH</CENTER_NAME><REF_FRAME>TEME</REF_FRAME><TIME_SYSTEM>UTC</TIME_SYSTEM><MEAN_ELEMENT_THEORY>SGP4</MEAN_ELEMENT_THEORY></metadata><data><meanElements><EPOCH>2024-07-13T20:13:09.988608</EPOCH><MEAN_MOTION>14.56808867</MEAN_MOTION><ECCENTRICITY>.0001546</ECCENTRICITY><INCLINATION>47.0024</INCLINATION><RA_OF_ASC_NODE>82.7624</RA_OF_ASC_NODE><ARG_OF_PERICENTER>43.5925</ARG_OF_PERICENTER><MEAN_ANOMALY>316.5082</MEAN_ANOMALY></meanElements><tleParameters><EPHEMERIS_TYPE>0</EPHEMERIS_TYPE><CLASSIFICATION_TYPE>U</CLASSIFICATION_TYPE><NORAD_CAT_ID>41182</NORAD_CAT_ID><ELEMENT_SET_NO>999</ELEMENT_SET_NO><REV_AT_EPOCH>45498</REV_AT_EPOCH><BSTAR>.48668E-3</BSTAR><MEAN_MOTION_DOT>.2033E-4</MEAN_MOTION_DOT><MEAN_MOTION_DDOT>0</MEAN_MOTION_DDOT></tleParameters></data></segment></body></omm>
<omm id="CCSDS_OMM_VERS" version="2.0">
<header><CREATION_DATE/><ORIGINATOR/></header><body><segment><metadata><OBJECT_NAME>ORBCOMM FM118</OBJECT_NAME><OBJECT_ID>2015-081E</OBJECT_ID><CENTER_NAME>EARTH</CENTER_NAME><REF_FRAME>TEME</REF_FRAME><TIME_SYSTEM>UTC</TIME_SYSTEM><MEAN_ELEMENT_THEORY>SGP4</MEAN_ELEMENT_THEORY></metadata><data><meanElements><EPOCH>2024-07-13T22:58:37.478208</EPOCH><MEAN_MOTION>14.56816968</MEAN_MOTION><ECCENTRICITY>.0001765</ECCENTRICITY><INCLINATION>47.0048</INCLINATION><RA_OF_ASC_NODE>82.5444</RA_OF_ASC_NODE><ARG_OF_PERICENTER>40.7535</ARG_OF_PERICENTER><MEAN_ANOMALY>319.3482</MEAN_ANOMALY></meanElements><tleParameters><EPHEMERIS_TYPE>0</EPHEMERIS_TYPE><CLASSIFICATION_TYPE>U</CLASSIFICATION_TYPE><NORAD_CAT_ID>41183</NORAD_CAT_ID><ELEMENT_SET_NO>999</ELEMENT_SET_NO><REV_AT_EPOCH>45510</REV_AT_EPOCH><BSTAR>.41462E-3</BSTAR><MEAN_MOTION_DOT>.1707E-4</MEAN_MOTION_DOT><MEAN_MOTION_DDOT>0</MEAN_MOTION_DDOT></tleParameters></data></segment></body></omm>
<omm id="CCSDS_OMM_VERS" version="2.0">
<header><CREATION_DATE/><ORIGINATOR/></header><body><segment><metadata><OBJECT_NAME>ORBCOMM FM112</OBJECT_NAME><OBJECT_ID>2015-081F</OBJECT_ID><CENTER_NAME>EARTH</CENTER_NAME><REF_FRAME>TEME</REF_FRAME><TIME_SYSTEM>UTC</TIME_SYSTEM><MEAN_ELEMENT_THEORY>SGP4</MEAN_ELEMENT_THEORY></metadata><data><meanElements><EPOCH>2024-07-13T19:33:51.139872</EPOCH><MEAN_MOTION>14.56728716</MEAN_MOTION><ECCENTRICITY>.0002267</ECCENTRICITY><INCLINATION>47.0007</INCLINATION><RA_OF_ASC_NODE>351.9019</RA_OF_ASC_NODE><ARG_OF_PERICENTER>261.2510</ARG_OF_PERICENTER><MEAN_ANOMALY>98.8118</MEAN_ANOMALY></meanElements><tleParameters><EPHEMERIS_TYPE>0</EPHEMERIS_TYPE><CLASSIFICATION_TYPE>U</CLASSIFICATION_TYPE><NORAD_CAT_ID>41184</NORAD_CAT_ID><ELEMENT_SET_NO>999</ELEMENT_SET_NO><REV_AT_EPOCH>45630</REV_AT_EPOCH><BSTAR>.42712E-3</BSTAR><MEAN_MOTION_DOT>.176E-4</MEAN_MOTION_DOT><MEAN_MOTION_DDOT>0</MEAN_MOTION_DDOT></tleParameters></data></segment></body></omm>
<omm id="CCSDS_OMM_VERS" version="2.0">
<header><CREATION_DATE/><ORIGINATOR/></header><body><segment><metadata><OBJECT_NAME>ORBCOMM FM113</OBJECT_NAME><OBJECT_ID>2015-081G</OBJECT_ID><CENTER_NAME>EARTH</CENTER_NAME><REF_FRAME>TEME</REF_FRAME><TIME_SYSTEM>UTC</TIME_SYSTEM><MEAN_ELEMENT_THEORY>SGP4</MEAN_ELEMENT_THEORY></metadata><data><meanElements><EPOCH>2024-07-14T03:14:57.674400</EPOCH><MEAN_MOTION>14.56728585</MEAN_MOTION><ECCENTRICITY>.0001886</ECCENTRICITY><INCLINATION>47.0027</INCLINATION><RA_OF_ASC_NODE>350.6709</RA_OF_ASC_NODE><ARG_OF_PERICENTER>272.5221</ARG_OF_PERICENTER><MEAN_ANOMALY>87.5448</MEAN_ANOMALY></meanElements><tleParameters><EPHEMERIS_TYPE>0</EPHEMERIS_TYPE><CLASSIFICATION_TYPE>U</CLASSIFICATION_TYPE><NORAD_CAT_ID>41185</NORAD_CAT_ID><ELEMENT_SET_NO>999</ELEMENT_SET_NO><REV_AT_EPOCH>45640</REV_AT_EPOCH><BSTAR>.41552E-3</BSTAR><MEAN_MOTION_DOT>.1707E-4</MEAN_MOTION_DOT><MEAN_MOTION_DDOT>0</MEAN_MOTION_DDOT></tleParameters></data></segment></body></omm>

</ndm>
